[{"OBJECT_NAME":"ONEWEB-0169","OBJECT_ID":"2021-025AM","EPOCH":"2026-03-09T18:32:16.213632","MEAN_MOTION":13.13469688,"ECCENTRICITY":0.00015539,"INCLINATION":87.9037,"RA_OF_ASC_NODE":339.9987,"ARG_OF_PERICENTER":75.942,"MEAN_ANOMALY":284.1882,"EPHEMERIS_TYPE":0,"CLASSIFICATION_TYPE":"U","NORAD_CAT_ID":48077,"ELEMENT_SET_NO":999,"REV_AT_EPOCH":23925,"BSTAR":-0.00064238077,"MEAN_MOTION_DOT":-2.22e-6,"MEAN_MOTION_DDOT":0},{"OBJECT_NAME":"DELTA 1 DEB","OBJECT_ID":"1973-086EJ","EPOCH":"2026-03-09T17:00:37.856736","MEAN_MOTION":13.06963556,"ECCENTRICITY":0.00866905,"INCLINATION":101.6482,"RA_OF_ASC_NODE":113.4494,"ARG_OF_PERICENTER":353.8115,"MEAN_ANOMALY":125.442,"EPHEMERIS_TYPE":0,"CLASSIFICATION_TYPE":"U","NORAD_CAT_ID":7170,"ELEMENT_SET_NO":999,"REV_AT_EPOCH":45116,"BSTAR":0.0029776114,"MEAN_MOTION_DOT":9.57e-6,"MEAN_MOTION_DDOT":0}]
